ORBCOMM FM37            
1 33064U 08031E   25354.52539700  .00000891  00000+0  14248-3 0  9997
2 33064  48.4383 177.2609 0004763 102.0506 287.9508 14.80627035941654
ORBCOMM FM40            
1 33065U 08031F   25354.83492780  .00001350  00000+0  19034-3 0  9997
2 33065  48.4405 156.5483 0005852 121.3183  20.2206 14.83138740941853
VESSELSAT 1             
1 37840U 11058C   25355.24227381  .00000335  00000+0  38141-4 0  9997
2 37840  19.9629  41.9736 0013837  84.2655 275.9327 14.11400204732769
ORBCOMM FM109           
1 40086U 14040A   25355.01607601  .00000270  00000+0  93760-4 0  9995
2 40086  47.0019 213.7060 0001287 127.8874 232.2129 14.58555290608330
ORBCOMM FM107           
1 40087U 14040B   25355.03492841  .00000338  00000+0  10809-3 0  9993
2 40087  47.0033 214.5021 0000750  37.5985 322.4953 14.58632379608417
ORBCOMM FM106           
1 40088U 14040C   25354.22891628  .00000733  00000+0  15208-3 0  9997
2 40088  47.0615  25.3896 0017025 214.7428 145.2352 14.70047278610842
ORBCOMM FM111           
1 40089U 14040D   25354.88041153  .00001389  00000+0  17365-3 0  9994
2 40089  47.0002 206.7005 0028413   6.4415 353.6843 14.87759654618018
ORBCOMM FM104           
1 40090U 14040E   25355.02398863  .00000325  00000+0  10921-3 0  9996
2 40090  47.0047 250.4254 0016600 337.4539  22.5615 14.57019331607868
